NORAD_CAT_ID,OBJECT_NAME,OBJECT_TYPE,EPOCH,MEAN_MOTION,ECCENTRICITY,INCLINATION,RA_OF_ASC_NODE,ARG_OF_PERICENTER,MEAN_ANOMALY,BSTAR,MEAN_MOTION_DOT,MEAN_MOTION_DDOT,TLE_LINE0,TLE_LINE1,TLE_LINE2,SEMIMAJOR_AXIS,PERIOD,APOGEE,PERIGEE,DECAYED
53171.0,STARLINK-4052,PAYLOAD,2022-09-06 04:00:00,15.73132792,0.0002602,53.2156,156.5142,20.6822,142.1234,0.00012165,0.00016438,0.0,0 STARLINK-4052,1 53171U 22083AR  22249.16667824  .00016438  00000-0  12165-3 0  9991,2 53171  53.2156 156.5142 0002602  20.6822 142.1234 15.73132792  8617,6728.087,91.537,351.702,348.201,0.0
53171.0,STARLINK-4052,PAYLOAD,2022-09-06 14:00:01,15.73099324,0.0002245,53.2153,154.4503,18.9484,344.9468,0.00077607,0.00109256,0.0,0 STARLINK-4052,1 53171U 22083AR  22249.58334491  .00109256  00000-0  77607-3 0  9991,2 53171  53.2153 154.4503 0002245  18.9484 344.9468 15.73099324  1302,6728.182,91.539,351.55800000000005,348.537,0.0
53171.0,STARLINK-4052,PAYLOAD,2022-09-06 22:00:00,15.73172043,0.0002352,53.2155,152.8024,19.6354,73.0921,0.00015017,0.00020482,0.0,0 STARLINK-4052,1 53171U 22083AR  22249.91667824  .00020482  00000-0  15017-3 0  9997,2 53171  53.2155 152.8024 0002352  19.6354  73.0921 15.73172043  1301,6727.975,91.535,351.422,348.25699999999995,0.0
53171.0,STARLINK-4052,PAYLOAD,2022-09-07 14:00:01,15.73143178,0.0002369,53.216,149.5022,25.6749,244.8995,0.00070573,0.00099367,0.0,0 STARLINK-4052,1 53171U 22083AR  22250.58334491  .00099367  00000-0  70573-3 0  9999,2 53171  53.2160 149.5022 0002369  25.6749 244.8995 15.73143178  8832,6728.057,91.536,351.516,348.32800000000015,0.0
53171.0,STARLINK-4052,PAYLOAD,2022-09-07 22:00:00,15.73223181,0.0002508,53.2163,147.8541,26.1951,333.2779,0.0001030999999999,0.00013887,0.0,0 STARLINK-4052,1 53171U 22083AR  22250.91667824  .00013887  00000-0  10310-3 0  9991,2 53171  53.2163 147.8541 0002508  26.1951 333.2779 15.73223181  1309,6727.829000000002,91.532,351.381,348.00699999999995,0.0
53171.0,STARLINK-4052,PAYLOAD,2022-09-08 06:00:00,15.732734,0.0002577,53.2159,146.2051,22.3675,66.0817,-0.00027687,-0.00039426,0.0,0 STARLINK-4052,1 53171U 22083AR  22251.25001157 -.00039426  00000-0 -27687-3 0  9994,2 53171  53.2159 146.2051 0002577  22.3675  66.0817 15.73273400  8939,6727.686,91.529,351.285,347.81699999999995,0.0
53171.0,STARLINK-4052,PAYLOAD,2022-09-08 14:00:01,15.73231954,0.0002313,53.2159,144.5537,25.3121,152.1256,-0.00024483,-0.00034891,0.0,0 STARLINK-4052,1 53171U 22083AR  22251.58334491 -.00034891  00000-0 -24483-3 0  9992,2 53171  53.2159 144.5537 0002313  25.3121 152.1256 15.73231954  1302,6727.804,91.531,351.225,348.11300000000006,0.0
53171.0,STARLINK-4052,PAYLOAD,2022-09-08 22:00:00,15.73230253,0.0002434,53.2159,142.9059,26.4502,239.9428,-0.00021591,-0.00030856,0.0,0 STARLINK-4052,1 53171U 22083AR  22251.91667824 -.00030856  00000-0 -21591-3 0  9992,2 53171  53.2159 142.9059 0002434  26.4502 239.9428 15.73230253  1308,6727.809,91.531,351.311,348.036,0.0
53171.0,STARLINK-4052,PAYLOAD,2022-09-09 14:00:01,15.73234705,0.0002290999999999,53.2161,139.6052,26.4774,57.8212,-0.0001629,-0.00023457,0.0,0 STARLINK-4052,1 53171U 22083AR  22252.58334491 -.00023457  00000-0 -16290-3 0  9996,2 53171  53.2161 139.6052 0002291  26.4774  57.8212 15.73234705  9143,6727.795999999999,91.531,351.20300000000015,348.12,0.0
53171.0,STARLINK-4052,PAYLOAD,2022-09-09 22:00:00,15.73239138,0.0002506999999999,53.2162,137.957,27.1774,146.0795,-0.00053769,-0.00075548,0.0,0 STARLINK-4052,1 53171U 22083AR  22252.91667824 -.00075548  00000-0 -53769-3 0  9992,2 53171  53.2162 137.9570 0002507  27.1774 146.0795 15.73239138  1300,6727.784000000002,91.531,351.335,347.962,0.0
53171.0,STARLINK-4052,PAYLOAD,2022-09-10 14:00:01,15.73164116,0.000216,53.2157,134.6566,23.0242,328.0872,0.00035409,0.00049292,0.0,0 STARLINK-4052,1 53171U 22083AR  22253.58334491  .00049292  00000-0  35409-3 0  9993,2 53171  53.2157 134.6566 0002160  23.0242 328.0872 15.73164116  1304,6727.996999999999,91.535,351.316,348.409,0.0
53171.0,STARLINK-4052,PAYLOAD,2022-09-10 20:00:01,15.73227037,0.000227,53.2157,133.4208,21.313,306.4654,-0.00042109,-0.00059379,0.0,0 STARLINK-4052,1 53171U 22083AR  22253.83334491 -.00059379  00000-0 -42109-3 0  9995,2 53171  53.2157 133.4208 0002270  21.3130 306.4654 15.73227037  9345,6727.818,91.532,351.21,348.156,0.0
53171.0,STARLINK-4052,PAYLOAD,2022-09-10 22:00:00,15.73228572,0.0002375,53.2155,133.0091,21.8054,58.2069,-0.00056561,-0.00079365,0.0,0 STARLINK-4052,1 53171U 22083AR  22253.91667824 -.00079365  00000-0 -56561-3 0  9997,2 53171  53.2155 133.0091 0002375  21.8054  58.2069 15.73228572  1300,6727.814,91.532,351.277,348.081,0.0
53171.0,STARLINK-4052,PAYLOAD,2022-09-11 14:00:01,15.7319521,0.0002197,53.2155,129.7079,25.19400000000001,232.6432,0.00059118,0.00083161,0.0,0 STARLINK-4052,1 53171U 22083AR  22254.58334491  .00083161  00000-0  59118-3 0  9990,2 53171  53.2155 129.7079 0002197  25.1940 232.6432 15.73195210  9460,6727.909000000002,91.533,351.25199999999984,348.296,0.0
53171.0,STARLINK-4052,PAYLOAD,2022-09-11 20:00:01,15.73265974,0.0002335999999999,53.2157,128.4722,24.0203,210.5266,-0.00053785,-0.00075653,0.0,0 STARLINK-4052,1 53171U 22083AR  22254.83334491 -.00075653  00000-0 -53785-3 0  9991,2 53171  53.2157 128.4722 0002336  24.0203 210.5266 15.73265974  9508,6727.706999999999,91.529,351.144,348.0,0.0
53171.0,STARLINK-4052,PAYLOAD,2022-09-11 22:00:00,15.73238574,0.0002413,53.2156,128.0602,23.1139,323.6866,-0.00026846,-0.00038195,0.0,0 STARLINK-4052,1 53171U 22083AR  22254.91667824 -.00038195  00000-0 -26846-3 0  9997,2 53171  53.2156 128.0602 0002413  23.1139 323.6866 15.73238574  1302,6727.785,91.531,351.274,348.027,0.0
53171.0,STARLINK-4052,PAYLOAD,2022-09-12 12:00:00,15.73172952,0.000216,53.2152,125.1717,22.8592,29.6249,0.00022895,0.00031596,0.0,0 STARLINK-4052,1 53171U 22083AR  22255.50001157  .00031596  00000-0  22895-3 0  9990,2 53171  53.2152 125.1717 0002160  22.8592  29.6249 15.73172952  9607,6727.972,91.535,351.291,348.384,0.0
53171.0,STARLINK-4052,PAYLOAD,2022-09-12 14:00:01,15.73159659,0.0002143,53.2151,124.7592,23.3296,141.3868,0.00049412,0.00069183,0.0,0 STARLINK-4052,1 53171U 22083AR  22255.58334491  .00069183  00000-0  49412-3 0  9995,2 53171  53.2151 124.7592 0002143  23.3296 141.3868 15.73159659  1307,6728.01,91.536,351.31699999999995,348.43300000000005,0.0
53171.0,STARLINK-4052,PAYLOAD,2022-09-12 22:00:00,15.73197478,0.0002376999999999,53.2149,123.1117,21.0831,232.5261,0.00032753,0.00045594,0.0,0 STARLINK-4052,1 53171U 22083AR  22255.91667824  .00045594  00000-0  32753-3 0  9991,2 53171  53.2149 123.1117 0002377  21.0831 232.5261 15.73197478  1300,6727.901999999999,91.533,351.367,348.168,0.0
53171.0,STARLINK-4052,PAYLOAD,2022-09-13 14:00:01,15.73196592,0.000217,53.2151,119.8101,24.9275,46.5919,-7.6924e-05,-0.00011402,0.0,0 STARLINK-4052,1 53171U 22083AR  22256.58334491 -.00011402  00000-0 -76924-4 0  9998,2 53171  53.2151 119.8101 0002170  24.9275  46.5919 15.73196592  1302,6727.905,91.533,351.23,348.31,0.0
53171.0,STARLINK-4052,PAYLOAD,2022-09-13 16:00:00,15.7320729,0.0002174,53.2155,119.3955,25.5,158.2484,-0.00029312,-0.00041573,0.0,0 STARLINK-4052,1 53171U 22083AR  22256.66667824 -.00041573  00000-0 -29312-3 0  9996,2 53171  53.2155 119.3955 0002174  25.5000 158.2484 15.73207290  9792,6727.874,91.533,351.202,348.277,0.0
53171.0,STARLINK-4052,PAYLOAD,2022-09-13 22:00:00,15.73198798,0.0002372,53.2161,118.157,24.5242,135.9187,-0.00063659,-0.00089032,0.0,0 STARLINK-4052,1 53171U 22083AR  22256.91667824 -.00089032  00000-0 -63659-3 0  9998,2 53171  53.2161 118.1570 0002372  24.5242 135.9187 15.73198798  1309,6727.899,91.533,351.3590000000001,348.168,0.0
53171.0,STARLINK-4052,PAYLOAD,2022-09-14 14:00:01,15.73211707,0.0002241,53.2151,114.8619,25.597,312.6025,0.00038172,0.00053322,0.0,0 STARLINK-4052,1 53171U 22083AR  22257.58334491  .00053322  00000-0  38172-3 0  9996,2 53171  53.2151 114.8619 0002241  25.5970 312.6025 15.73211707  9937,6727.861999999999,91.532,351.235,348.219,0.0
53171.0,STARLINK-4052,PAYLOAD,2022-09-14 20:00:01,15.73258073,0.0002366,53.2148,113.6263,22.696,292.2236,-0.00050361,-0.00070893,0.0,0 STARLINK-4052,1 53171U 22083AR  22257.83334491 -.00070893  00000-0 -50361-3 0  9992,2 53171  53.2148 113.6263 0002366  22.6960 292.2236 15.73258073  9978,6727.73,91.53,351.186,348.00300000000016,0.0
53171.0,STARLINK-4052,PAYLOAD,2022-09-14 22:00:00,15.73219894,0.0002403,53.2149,113.2144,21.4328,45.7425,1.0991e-05,9.22e-06,0.0,0 STARLINK-4052,1 53171U 22083AR  22257.91667824  .00000922  00000-0  10991-4 0  9990,2 53171  53.2149 113.2144 0002403  21.4328  45.7425 15.73219894  1308,6727.8380000000025,91.532,351.32,348.087,0.0
53171.0,STARLINK-4052,PAYLOAD,2022-09-15 06:00:00,15.73258634,0.000239,53.2148,111.5638,20.5974,135.5291,-0.00061251,-0.00085939,0.0,0 STARLINK-4052,1 53171U 22083AR  22258.25001157 -.00085939  00000-0 -61251-3 0  9996,2 53171  53.2148 111.5638 0002390  20.5974 135.5291 15.73258634 10043,6727.728,91.53,351.201,347.985,0.0
53171.0,STARLINK-4052,PAYLOAD,2022-09-15 14:00:01,15.73211549,0.000221,53.2151,109.913,24.0275,221.0594,-9.8071e-05,-0.0001437,0.0,0 STARLINK-4052,1 53171U 22083AR  22258.58334491 -.00014370  00000-0 -98071-4 0  9994,2 53171  53.2151 109.9130 0002210  24.0275 221.0594 15.73211549  1309,6727.861999999999,91.533,351.214,348.24,0.0
53171.0,STARLINK-4052,PAYLOAD,2022-09-15 22:00:00,15.73184355,0.0002495,53.2153,108.2655,20.6738,313.3508,0.00042889,0.00059967,0.0,0 STARLINK-4052,1 53171U 22083AR  22258.91667824  .00059967  00000-0  42889-3 0  9994,2 53171  53.2153 108.2655 0002495  20.6738 313.3508 15.73184355 10142,6727.94,91.534,351.483,348.126,0.0
53171.0,STARLINK-4052,PAYLOAD,2022-09-16 14:00:01,15.73240082,0.0002399999999999,53.2153,104.9646,29.3628,122.566,-0.00025011,-0.0003563999999999,0.0,0 STARLINK-4052,1 53171U 22083AR  22259.58334491 -.00035640  00000-0 -25011-3 0  9991,2 53171  53.2153 104.9646 0002400  29.3628 122.5660 15.73240082  1302,6727.781,91.531,351.261,348.031,0.0
